OBJECT_NAME,OBJECT_ID,EPOCH,MEAN_MOTION,ECCENTRICITY,INCLINATION,RA_OF_ASC_NODE,ARG_OF_PERICENTER,MEAN_ANOMALY,EPHEMERIS_TYPE,CLASSIFICATION_TYPE,NORAD_CAT_ID,ELEMENT_SET_NO,REV_AT_EPOCH,BSTAR,MEAN_MOTION_DOT,MEAN_MOTION_DDOT
STARLINK-35894,2025-263R,2026-07-04T00:58:13.681632,15.27603591,.00014117,43.0035,57.0427,267.0274,93.0416,0,U,66500,999,3665,.11275093E-2,.30917E-3,0
STARLINK-35897,2025-263S,2026-07-04T01:06:19.486368,15.27604941,.00014542,42.9992,53.6194,275.7305,84.3381,0,U,66501,999,3669,.8565349E-3,.23401E-3,0
STARLINK-35922,2025-263T,2026-07-03T23:59:55.290336,15.27605588,.00015925,43.0006,54.1307,267.4846,92.5823,0,U,66502,999,3668,.9710537E-3,.26577E-3,0
STARLINK-35917,2025-263U,2026-07-03T23:43:15.933504,15.27600546,.00013703,43.0008,54.0410,280.3613,79.7084,0,U,66503,999,3668,.97152359E-3,.26585E-3,0
STARLINK-35916,2025-263V,2026-07-03T23:48:07.889472,15.27630555,.00016433,42.9993,57.5612,253.9988,106.0683,0,U,66504,999,3664,.14347975E-2,.39494E-3,0
STARLINK-34766,2025-263W,2026-07-04T00:20:03.764544,15.27604899,.00017328,43.0032,53.3723,260.3859,99.6797,0,U,66505,999,3669,.10947497E-2,.30009E-3,0
STARLINK-34765,2025-263X,2026-07-04T01:02:37.123872,15.27595082,.00015135,43.0001,53.5974,272.6497,87.4182,0,U,66506,999,3669,.11630325E-2,.31895E-3,0
STARLINK-34767,2025-263Y,2026-07-03T23:54:24.222816,15.27595839,.00013931,42.9984,54.1074,269.8909,90.1783,0,U,66507,999,3668,.10838034E-2,.29697E-3,0
STARLINK-35608,2025-263Z,2026-07-03T23:37:42.939264,15.27605693,.00012492,42.9992,54.0122,269.9421,90.1287,0,U,66508,999,3668,.79833174E-3,.21788E-3,0
STARLINK-35598,2025-263AA,2026-07-04T00:11:01.242528,15.27616684,.00015846,43.0018,54.1878,255.2192,104.8484,0,U,66509,999,3668,.13330598E-2,.36645E-3,0
STARLINK-35600,2025-263AB,2026-07-04T00:05:28.286304,15.27598233,.00013929,43.0013,54.1613,265.2397,94.8295,0,U,66510,999,3668,.89574265E-3,.24482E-3,0
STARLINK-35444,2025-263AC,2026-07-04T00:47:49.104672,15.27602748,.00015267,43.0034,53.5140,267.6209,92.4468,0,U,66511,999,3669,.96362749E-3,.26368E-3,0
STARLINK-35366,2025-263AD,2026-07-04T01:08:09.998016,15.27610851,.0001429,42.9992,53.6197,267.9592,92.1096,0,U,66512,999,3669,.88966881E-3,.24324E-3,0
STARLINK-35692,2025-263AE,2026-07-04T01:19:16.399488,15.27614741,.00014964,43.0002,53.6773,267.4502,92.6179,0,U,66513,999,3669,.13149868E-2,.3614E-3,0
STARLINK-35924,2025-265A,2026-07-04T02:58:59.824992,15.27593860,.00006431,42.9976,340.1195,273.1911,86.8867,0,U,66516,999,3492,.93489462E-3,.25564E-3,0
STARLINK-35937,2025-265B,2026-07-03T21:56:22.801056,15.27605164,.00013408,43.0015,341.9835,265.4405,94.6294,0,U,66517,999,3488,.91920552E-3,.25138E-3,0
STARLINK-35962,2025-265C,2026-07-03T13:52:37.089120,15.27581272,.00037331,43.0015,343.7606,299.4911,60.5568,0,U,66518,999,3483,-.55922024E-3,-.15623E-3,0
STARLINK-35931,2025-265D,2026-07-04T03:35:59.586144,15.27610375,.00002123,42.9987,340.3074,117.7358,242.3515,0,U,66519,999,3492,.97514716E-3,.26694E-3,0
STARLINK-35952,2025-265E,2026-07-04T03:48:56.796480,15.27597889,.00015818,43.0029,340.3806,264.6636,95.4035,0,U,66520,999,3492,.10743869E-2,.29437E-3,0
STARLINK-35915,2025-265F,2026-07-04T03:34:09.008832,15.27601022,.00008925,43.0003,340.2991,253.0845,106.9909,0,U,66521,999,3492,.66534695E-3,.18103E-3,0
STARLINK-35946,2025-265G,2026-07-03T20:05:33.885600,15.27599826,.00016649,43.0041,342.2611,276.0659,84.0003,0,U,66522,999,3487,.82706848E-3,.22581E-3,0
STARLINK-35969,2025-265H,2026-07-04T03:21:10.629504,15.27629000,.00030844,43.0048,340.2287,275.3018,84.7482,0,U,66523,999,3492,.10169245E-2,.27871E-3,0
STARLINK-35687,2025-265J,2026-07-03T12:27:44.743968,15.27590393,.00015506,43.0010,344.1804,267.5031,92.5643,0,U,66524,999,3482,.9630048E-3,.26341E-3,0
STARLINK-35975,2025-265K,2026-07-03T19:32:15.832032,15.27602779,.00015655,43.0028,342.0898,270.1115,89.9557,0,U,66525,999,3487,.99986284E-3,.27373E-3,0
STARLINK-35932,2025-265L,2026-07-03T19:28:33.532608,15.27609350,.00018883,43.0027,342.0670,276.6834,83.3802,0,U,66526,999,3487,.108402E-2,.29715E-3,0
STARLINK-35935,2025-265M,2026-07-04T03:47:06.709920,15.27591420,.00010052,43.0002,340.3623,102.0875,258.0089,0,U,66527,999,3492,.12010248E-2,.32947E-3,0
STARLINK-35928,2025-265N,2026-07-03T19:19:18.496416,15.27600775,.00012264,43.0022,342.0146,284.7517,75.3198,0,U,66528,999,3487,.99113751E-3,.27129E-3,0
STARLINK-35933,2025-265P,2026-07-03T20:12:58.207968,15.27607797,.00014174,43.0030,342.3047,274.7927,85.2763,0,U,66529,999,3487,.10857515E-2,.29761E-3,0
STARLINK-35961,2025-265Q,2026-07-04T03:43:23.882592,15.27605370,.00008361,43.0005,340.3469,239.5399,120.5370,0,U,66530,999,3492,.75558264E-3,.20604E-3,0
STARLINK-35960,2025-265R,2026-07-04T02:51:37.177920,15.27605171,.00013505,43.0000,340.0783,252.4786,107.5919,0,U,66531,999,3492,.16394164E-2,.45163E-3,0
