STARLINK-35894          
1 66500U 25263R   26185.04043613  .00030917  00000+0  11275-2 0  9995
2 66500  43.0035  57.0427 0001411 267.0274  93.0416 15.27603591 36656
STARLINK-35897          
1 66501U 25263S   26185.04605887  .00023401  00000+0  85653-3 0  9995
2 66501  42.9992  53.6194 0001454 275.7305  84.3381 15.27604941 36696
STARLINK-35922          
1 66502U 25263T   26184.99994549  .00026577  00000+0  97105-3 0  9997
2 66502  43.0006  54.1307 0001592 267.4846  92.5823 15.27605588 36687
STARLINK-35917          
1 66503U 25263U   26184.98837886  .00026585  00000+0  97152-3 0  9998
2 66503  43.0008  54.0410 0001370 280.3613  79.7084 15.27600546 36689
STARLINK-35916          
1 66504U 25263V   26184.99175798  .00039494  00000+0  14348-2 0  9995
2 66504  42.9993  57.5612 0001643 253.9988 106.0683 15.27630555 36645
STARLINK-34766          
1 66505U 25263W   26185.01393246  .00030009  00000+0  10947-2 0  9994
2 66505  43.0032  53.3723 0001732 260.3859  99.6797 15.27604899 36697
STARLINK-34765          
1 66506U 25263X   26185.04348523  .00031895  00000+0  11630-2 0  9990
2 66506  43.0001  53.5974 0001513 272.6497  87.4182 15.27595082 36691
STARLINK-34767          
1 66507U 25263Y   26184.99611369  .00029697  00000+0  10838-2 0  9991
2 66507  42.9984  54.1074 0001393 269.8909  90.1783 15.27595839 36687
STARLINK-35608          
1 66508U 25263Z   26184.98452476  .00021788  00000+0  79833-3 0  9997
2 66508  42.9992  54.0122 0001249 269.9421  90.1287 15.27605693 36689
STARLINK-35598          
1 66509U 25263AA  26185.00765327  .00036645  00000+0  13331-2 0  9992
2 66509  43.0018  54.1878 0001584 255.2192 104.8484 15.27616684 36689
STARLINK-35600          
1 66510U 25263AB  26185.00379961  .00024482  00000+0  89574-3 0  9998
2 66510  43.0013  54.1613 0001392 265.2397  94.8295 15.27598233 36685
STARLINK-35444          
1 66511U 25263AC  26185.03320723  .00026368  00000+0  96363-3 0  9993
2 66511  43.0034  53.5140 0001526 267.6209  92.4468 15.27602748 36698
STARLINK-35366          
1 66512U 25263AD  26185.04733794  .00024324  00000+0  88967-3 0  9992
2 66512  42.9992  53.6197 0001429 267.9592  92.1096 15.27610851 36691
STARLINK-35692          
1 66513U 25263AE  26185.05505092  .00036140  00000+0  13150-2 0  9992
2 66513  43.0002  53.6773 0001496 267.4502  92.6179 15.27614741 36695
STARLINK-35924          
1 66516U 25265A   26185.12430353  .00025564  00000+0  93489-3 0  9994
2 66516  42.9976 340.1195 0000643 273.1911  86.8867 15.27593860 34920
STARLINK-35937          
1 66517U 25265B   26184.91415279  .00025138  00000+0  91921-3 0  9997
2 66517  43.0015 341.9835 0001340 265.4405  94.6294 15.27605164 34881
STARLINK-35962          
1 66518U 25265C   26184.57820705 -.00015623  00000+0 -55922-3 0  9995
2 66518  43.0015 343.7606 0003733 299.4911  60.5568 15.27581272 34839
STARLINK-35931          
1 66519U 25265D   26185.14999521  .00026694  00000+0  97515-3 0  9995
2 66519  42.9987 340.3074 0000212 117.7358 242.3515 15.27610375 34923
STARLINK-35952          
1 66520U 25265E   26185.15899070  .00029437  00000+0  10744-2 0  9992
2 66520  43.0029 340.3806 0001581 264.6636  95.4035 15.27597889 34926
STARLINK-35915          
1 66521U 25265F   26185.14871538  .00018103  00000+0  66535-3 0  9999
2 66521  43.0003 340.2991 0000892 253.0845 106.9909 15.27601022 34924
STARLINK-35946          
1 66522U 25265G   26184.83719775  .00022581  00000+0  82707-3 0  9993
2 66522  43.0041 342.2611 0001664 276.0659  84.0003 15.27599826 34877
STARLINK-35969          
1 66523U 25265H   26185.13970636  .00027871  00000+0  10169-2 0  9992
2 66523  43.0048 340.2287 0003084 275.3018  84.7482 15.27629000 34923
STARLINK-35687          
1 66524U 25265J   26184.51926787  .00026341  00000+0  96300-3 0  9995
2 66524  43.0010 344.1804 0001550 267.5031  92.5643 15.27590393 34822
STARLINK-35975          
1 66525U 25265K   26184.81407213  .00027373  00000+0  99986-3 0  9996
2 66525  43.0028 342.0898 0001565 270.1115  89.9557 15.27602779 34872
STARLINK-35932          
1 66526U 25265L   26184.81149922  .00029715  00000+0  10840-2 0  9990
2 66526  43.0027 342.0670 0001888 276.6834  83.3802 15.27609350 34870
STARLINK-35935          
1 66527U 25265M   26185.15771655  .00032947  00000+0  12010-2 0  9995
2 66527  43.0002 340.3623 0001005 102.0875 258.0089 15.27591420 34923
STARLINK-35928          
1 66528U 25265N   26184.80507519  .00027129  00000+0  99114-3 0  9990
2 66528  43.0022 342.0146 0001226 284.7517  75.3198 15.27600775 34870
STARLINK-35933          
1 66529U 25265P   26184.84234037  .00029761  00000+0  10858-2 0  9998
2 66529  43.0030 342.3047 0001417 274.7927  85.2763 15.27607797 34878
STARLINK-35961          
1 66530U 25265Q   26185.15513753  .00020604  00000+0  75558-3 0  9996
2 66530  43.0005 340.3469 0000836 239.5399 120.5370 15.27605370 34922
STARLINK-35960          
1 66531U 25265R   26185.11918030  .00045163  00000+0  16394-2 0  9999
2 66531  43.0000 340.0783 0001350 252.4786 107.5919 15.27605171 34923
